STARLINK-30408
1 57824U 23138S   26061.16668981  .02033382  00000+0  81609-1 0  9998
2 57824  42.9983 276.0601 0001692 285.4131 116.0603 15.20697934  5410
